O3B MPOWER F1           
1 54755U 22174A   24031.84707429 -.00000014  00000+0  00000+0 0  9997
2 54755   0.0605  10.6518 0006285 311.6947  92.0024  5.00118513 21961
